OBJECT_NAME,OBJECT_ID,EPOCH,MEAN_MOTION,ECCENTRICITY,INCLINATION,RA_OF_ASC_NODE,ARG_OF_PERICENTER,MEAN_ANOMALY,EPHEMERIS_TYPE,CLASSIFICATION_TYPE,NORAD_CAT_ID,ELEMENT_SET_NO,REV_AT_EPOCH,BSTAR,MEAN_MOTION_DOT,MEAN_MOTION_DDOT
SWARM B,2013-067A,2026-07-14T21:22:03.289440,15.28715762,.0002307,87.7459,333.9009,82.3868,277.7643,0,U,39451,999,68747,.69710445E-4,.1981E-4,0
SWARM A,2013-067B,2026-07-14T19:55:56.925408,15.51454234,.00033108,87.3296,45.9625,93.7207,266.4433,0,U,39452,999,71053,.10703747E-3,.6355E-4,0
SWARM C,2013-067C,2026-07-14T19:55:48.853920,15.51453337,.00033017,87.3296,44.5433,93.8265,266.3374,0,U,39453,999,71049,.10496632E-3,.6233E-4,0
BRITE-CA1 (TORONTO),2014-033L,2026-07-14T21:28:29.466336,14.72722213,.0078412,97.9771,324.3173,187.2199,172.7886,0,U,40020,999,64629,.85757222E-4,.52E-5,0
OCO 2,2014-035A,2026-07-14T19:53:54.989088,14.57132084,.00014395,98.2020,136.7023,81.3644,278.7718,0,U,40059,999,64007,.47940521E-4,.171E-5,0
BRITE-PL2 (HEWELIUSZ),2014-049B,2026-07-14T21:19:12.934560,14.94686767,.00143636,97.9120,308.1065,23.2614,336.9253,0,U,40119,999,64558,.54623313E-4,.534E-5,0
MMS 1,2015-011A,2026-07-14T22:00:03.000096,0.28328227,.83017845,72.4634,348.4292,168.0295,247.0713,0,U,40482,999,135,0,-.1497E-4,0
MMS 2,2015-011B,2026-07-14T22:00:03.000096,0.28326164,.83045265,72.4666,348.4281,168.0302,247.0669,0,U,40483,999,135,0,-.1498E-4,0
MMS 3,2015-011C,2026-07-14T22:00:03.000096,0.28328218,.83029667,72.4670,348.4401,168.0401,247.0328,0,U,40484,999,132,0,-.1496E-4,0
MMS 4,2015-011D,2026-07-14T22:00:03.000096,0.28328234,.83029142,72.4626,348.4235,168.0499,247.0279,0,U,40485,999,138,0,-.1497E-4,0
ASTROSAT,2015-052A,2026-07-14T14:32:31.036128,14.82551732,.0007438,5.9977,317.9923,64.8495,295.2404,0,U,40930,999,58390,.55705E-4,.1128E-4,0
DAMPE,2015-078A,2026-07-14T22:46:46.629120,15.30852275,.00115995,97.4559,201.5538,346.3931,13.6995,0,U,41173,999,58879,.20410531E-4,.531E-5,0
PISAT,2016-059B,2026-07-14T22:26:02.083776,14.69029444,.00304391,97.8191,195.1967,115.6353,244.8003,0,U,41784,999,52381,.84898027E-4,.454E-5,0
HXMT (HUIYAN),2017-034A,2026-07-14T22:57:51.808896,15.18687349,.00323202,43.0154,28.3874,319.3175,40.5260,0,U,42758,999,50188,.11707839E-3,.2257E-4,0
FLYING LAPTOP,2017-042G,2026-07-14T23:31:22.215072,15.01312390,.00197205,97.4798,350.4668,33.1862,327.0595,0,U,42831,999,49062,.16448539E-3,.2067E-4,0
ZHANGHENG 1-01 (CSES-1),2018-015C,2026-07-14T23:16:11.415648,15.20606306,.00163741,97.6887,2.1839,165.6967,194.4734,0,U,43194,999,46886,.17241404E-3,.3718E-4,0
SALSAT,2020-068K,2026-07-14T13:10:14.011392,15.30166467,.0009148,97.8856,200.2874,195.2534,164.8431,0,U,46495,999,31954,.14541E-3,.4163E-4,0
IXPE,2021-121A,2026-07-14T22:00:03.000096,15.10487311,.00071648,0.2293,107.3094,137.4052,171.6477,0,U,49954,999,537,.27662136E-3,.5612E-4,0
SMILE,2026-109A,2026-07-09T17:59:58.643520,0.47504768,.83237117,70.0471,206.6613,287.0422,0.1458,0,U,69123,999,4,0,.1173E-4,0
